GPS BIIR-2  (PRN 13)    
1 24876U 97035A   21033.28537850  .00000065  00000-0  00000-0 0  9999
2 24876  55.4664 175.1841 0047263  57.7256 302.7000  2.00562330172632
GPS BIIR-4  (PRN 20)    
1 26360U 00025A   21033.45050022 -.00000020  00000-0  00000-0 0  9994
2 26360  53.6766  99.6028 0058078 165.1200 295.7459  2.00563455151940
GPS BIIR-5  (PRN 28)    
1 26407U 00040A   21033.69407778 -.00000016  00000-0  00000-0 0  9998
2 26407  55.8210 293.0753 0182276 282.3121 315.3929  2.00564297150627
GPS BIIR-8  (PRN 16)    
1 27663U 03005A   21033.42275113 -.00000014  00000-0  00000-0 0  9992
2 27663  55.8748 292.8802 0119859  36.2627 130.9124  2.00567224131983
GPS BIIR-9  (PRN 21)    
1 27704U 03010A   21033.42432522 -.00000045  00000-0  00000-0 0  9997
2 27704  54.7779  43.6153 0244280 291.0897  91.5958  2.00557519130789
GPS BIIR-10 (PRN 22)    
1 28129U 03058A   21032.97887013 -.00000014  00000-0  00000-0 0  9995
2 28129  53.4864 102.2941 0071307 299.2983  60.0539  2.00569967125457
GPS BIIR-11 (PRN 19)    
1 28190U 04009A   21033.47966091 -.00000064  00000-0  00000-0 0  9995
2 28190  56.2285 353.7225 0087749 101.9901 260.6539  2.00570542123623
GPS BIIR-13 (PRN 02)    
1 28474U 04045A   21033.09024095 -.00000043  00000-0  00000-0 0  9994
2 28474  55.1157  43.5824 0205764 271.0328  86.3039  2.00571556119094
CRE (WAAS/PRN 138)      
1 28868U 05036A   21033.84766267 -.00000074  00000-0  00000-0 0  9993
2 28868   0.0158   1.5364 0002488 351.3613 338.1791  1.00270754 26793
GPS BIIRM-1 (PRN 17)    
1 28874U 05038A   21033.69388653 -.00000065  00000-0  00000-0 0  9994
2 28874  56.3188 351.1196 0137878 269.2946 268.6614  2.00579398112516
IOR-W (EGNOS/PRN 126)   
1 28899U 05044A   21033.84396000  .00000010  00000-0  00000-0 0  9999
2 28899   3.1553  32.2596 0002861 290.7841 177.9075  1.00271043 55868
GPS BIIRM-2 (PRN 31)    
1 29486U 06042A   21033.05778917  .00000082  00000-0  00000-0 0  9994
2 29486  54.8013 229.2049 0099313  12.5560 346.8538  2.00556307105083
GPS BIIRM-3 (PRN 12)    
1 29601U 06052A   21032.00415305 -.00000003  00000-0  00000-0 0  9991
2 29601  55.8684 291.8591 0080761  66.7816 294.1348  2.00576630104057
COSMOS 2425 (716)       
1 29670U 06062A   21031.48105091  .00000066  00000-0  00000+0 0  9994
2 29670  64.8814 260.0788 0024598 349.2704 195.1614  2.13107663109742
GPS BIIRM-4 (PRN 15)    
1 32260U 07047A   21031.82336504  .00000042  00000-0  00000-0 0  9995
2 32260  53.2145 161.3298 0128694  54.7214 306.4452  2.00576200 97493
COSMOS 2433 (720)       
1 32275U 07052A   21033.63207765 -.00000026  00000-0  00000-0 0  9997
2 32275  66.0402  21.2640 0005264 263.6763 310.4949  2.13104298103312
COSMOS 2432 (719)       
1 32276U 07052B   21033.70309703 -.00000026  00000-0  00000-0 0  9991
2 32276  66.0525  21.3539 0012005 318.5672 259.6827  2.13103605103317
GPS BIIRM-5 (PRN 29)    
1 32384U 07062A   21032.14356804 -.00000060  00000-0  00000-0 0  9991
2 32384  56.4221 351.8810 0012913 130.2677 233.4166  2.00562025 96169
COSMOS 2434 (721)       
1 32393U 07065A   21033.94399416  .00000061  00000-0  00000-0 0  9999
2 32393  64.4962 258.5154 0004362  74.0767 267.4039  2.13103099102023
COSMOS 2436 (723)       
1 32395U 07065C   21033.71470589  .00000061  00000-0  00000-0 0  9997
2 32395  64.5051 258.5760 0016058   4.9305 296.7983  2.13102984101959
GPS BIIRM-6 (PRN 07)    
1 32711U 08012A   21033.22552011  .00000083  00000-0  00000-0 0  9993
2 32711  54.5519 228.2479 0145425 225.7379 133.0775  2.00570913 94449
GPS BIIRM-8 (PRN 05)    
1 35752U 09043A   21032.70030568 -.00000008  00000-0  00000-0 0  9994
2 35752  54.7213 105.7489 0058121  49.3095 313.3765  2.00547527 84021
COSMOS 2456 (730)       
1 36111U 09070A   21033.62121635  .00000024  00000-0  00000-0 0  9999
2 36111  64.2556 138.2066 0002835 325.6708 300.5255  2.13099188 86686
COSMOS 2457 (733)       
1 36112U 09070B   21033.51461581  .00000024  00000-0  00000-0 0  9995
2 36112  64.2385 138.0984 0005954 158.6714 149.0459  2.13101426 86681
BEIDOU 3 (C01)          
1 36287U 10001A   21033.83313490 -.00000282  00000-0  00000-0 0  9991
2 36287   1.6791  40.4860 0002807 104.2536  68.8477  1.00271147 40515
COSMOS 2459 (731)       
1 36400U 10007A   21033.69974294 -.00000027  00000-0  00000-0 0  9990
2 36400  65.9381  20.2039 0026126 343.8933 138.3454  2.13105147 85031
COSMOS 2461 (735)       
1 36401U 10007B   21033.70363646 -.00000027  00000-0  00000-0 0  9996
2 36401  65.9341  20.1672 0020269 359.0615 128.0934  2.13103811 85044
COSMOS 2460 (732)       
1 36402U 10007C   21033.75982043 -.00000028  00000-0  00000-0 0  9991
2 36402  65.9207  20.1260 0002649 280.6073 193.1163  2.13106618 85043
GPS BIIF-1  (PRN 25)    
1 36585U 10022A   21033.28588031 -.00000005  00000-0  00000-0 0  9992
2 36585  55.1415 287.6800 0095680  52.9581 119.7929  2.00563484 78262
BEIDOU 5 (C06)          
1 36828U 10036A   21033.61695716 -.00000064  00000-0  00000-0 0  9998
2 36828  54.1727 180.8356 0102101 233.2007  55.8387  1.00243824 38559
COSMOS 2464 (736)       
1 37139U 10041C   21033.67329314  .00000061  00000-0  00000-0 0  9990
2 37139  64.0966 257.8486 0028987  12.5950 343.1279  2.13100790 81092
QZS-1 (QZSS/PRN 183)    
1 37158U 10045A   21033.61744681 -.00000157  00000-0  00000-0 0  9994
2 37158  41.8367 140.3541 0760747 270.6410  83.6257  1.00256899 38084
BEIDOU 6 (C04)          
1 37210U 10057A   21033.86315193 -.00000112  00000-0  00000-0 0  9996
2 37210   0.9065  51.6925 0005465 195.7903 356.5874  1.00272114 37621
BEIDOU 7 (C07)          
1 37256U 10068A   21033.95295826 -.00000205  00000-0  00000-0 0  9991
2 37256  51.0900 295.5993 0081965 216.7715  80.6520  1.00299053 37145
COSMOS 2471 (701K)      
1 37372U 11009A   21033.69857289 -.00000028  00000-0  00000-0 0  9997
2 37372  65.9178  20.0660 0010169 237.4664 352.8412  2.13107327 77312
BEIDOU 8 (C08)          
1 37384U 11013A   21033.84877664 -.00000178  00000-0  00000-0 0  9997
2 37384  59.5888  59.2589 0055136 206.4399 291.3794  1.00292138 36012
GSAT-8 (GAGAN/PRN 127)  
1 37605U 11022A   21033.92827080  .00000084  00000-0  00000-0 0  9994
2 37605   0.0017 129.4674 0007814 152.0575 241.0322  1.00271980 33568
GPS BIIF-2  (PRN 01)    
1 37753U 11036A   21033.42601235 -.00000039  00000-0  00000-0 0  9991
2 37753  56.3311  48.2357 0101590  45.9809 315.6960  2.00562038 69951
BEIDOU 9 (C09)          
1 37763U 11038A   21033.74118966 -.00000041  00000-0  00000-0 0  9996
2 37763  54.4642 183.2703 0077197 223.6534  85.7780  1.00292602 34984
GSAT0101 (PRN E11)      
1 37846U 11060A   21032.89341409 -.00000046  00000-0  00000-0 0  9993
2 37846  56.7669  34.9868 0004035 320.4830  39.5107  1.70475131 57689
GSAT0102 (PRN E12)      
1 37847U 11060B   21032.53118874 -.00000045  00000-0  00000-0 0  9992
2 37847  56.7663  34.9961 0005792 306.4523 237.4225  1.70475309 57689
COSMOS 2476 (744)       
1 37867U 11064A   21033.28302690  .00000028  00000-0  00000-0 0  9992
2 37867  64.5525 139.3775 0019601 234.3814  33.5445  2.13101886 72022
COSMOS 2477 (745)       
1 37868U 11064B   21033.64410234  .00000025  00000-0  00000-0 0  9994
2 37868  64.5606 139.4245 0017170 235.3045 128.0220  2.13101711 71995
COSMOS 2475 (743)       
1 37869U 11064C   21033.70545243  .00000025  00000-0  00000-0 0  9991
2 37869  64.5675 139.4261 0020749 257.0748 110.9069  2.13101822 72004
BEIDOU 10 (C10)         
1 37948U 11073A   21033.22044479 -.00000142  00000-0  00000-0 0  9992
2 37948  51.1936 295.2203 0069925 215.7740 156.5044  1.00283878 33747
LUCH 5A (SDCM/PRN 140)  
1 37951U 11074B   21033.86454771 -.00000049  00000-0  00000-0 0  9993
2 37951   3.7958 108.6148 0002495 243.7580 259.1560  1.00269574 33532
BEIDOU 11 (C05)         
1 38091U 12008A   21033.92827080  .00000055  00000-0  00000-0 0  9997
2 38091   1.9691  71.5698 0003991 247.8897 206.7119  1.00272891 32823
BEIDOU 12 (C11)         
1 38250U 12018A   21033.51620664 -.00000063  00000-0  00000-0 0  9999
2 38250  56.7562  10.0675 0024340 250.3187 294.2620  1.86234398 59776
BEIDOU 13 (C12)         
1 38251U 12018B   21032.95678977 -.00000062  00000-0  00000-0 0  9996
2 38251  56.6807   9.4434 0015400 255.4358 318.5277  1.86234210 59766
SES-5 (EGNOS/PRN 136)   
1 38652U 12036A   21033.91091014  .00000033  00000-0  00000-0 0  9996
2 38652   0.0243  77.8419 0001829 237.0982 151.2552  1.00272512 24841
BEIDOU 15 (C14)         
1 38775U 12050B   21033.51775478  .00000006  00000-0  00000-0 0  9997
2 38775  55.1486 128.5337 0013147 319.3707 108.0524  1.86232328 57159
GSAT-10 (GAGAN/PRN 128) 
1 38779U 12051B   21033.88425984 -.00000165  00000-0  00000-0 0  9993
2 38779   0.0020 319.2779 0002884 309.8160 265.5188  1.00270207 30462
GPS BIIF-3  (PRN 24)    
1 38833U 12053A   21032.90696423  .00000082  00000-0  00000-0 0  9993
2 38833  53.5987 223.8856 0107383  40.7110 320.0975  2.00569551 60211
GSAT0103 (PRN E19)      
1 38857U 12055A   21031.76183707  .00000024  00000-0  00000-0 0  9996
2 38857  55.0187 155.4980 0002360 246.1974 113.7464  1.70473527 51700
GSAT0104 (PRN E20)      
1 38858U 12055B   21032.86944420  .00000025  00000-0  00000-0 0  9997
2 38858  55.0197 155.4670 0001140 240.7651 119.1976  1.70473431 51729
BEIDOU 16 (C02)         
1 38953U 12059A   21033.84797286 -.00000176  00000-0  00000-0 0  9990
2 38953   1.6477  84.8633 0009520 260.8651 176.7656  1.00270362 30395
LUCH 5B (SDCM/PRN 125)  
1 38977U 12061A   21033.89970381 -.00000136  00000-0  00000-0 0  9999
2 38977   6.2269  66.1490 0001950 254.8530 119.8527  1.00271864 30521
COSMOS 2485 (747)       
1 39155U 13019A   21033.93757749  .00000023  00000-0  00000-0 0  9992
2 39155  64.7194 139.6753 0020252 229.9871 224.6010  2.13101827 60511
GPS BIIF-4  (PRN 27)    
1 39166U 13023A   21033.27047146 -.00000064  00000-0  00000-0 0  9995
2 39166  55.9690 347.6996 0088695  31.5016 329.0292  2.00563469 56550
